ONEWEB-0226             
1 48793U 21045AC  23059.30126134  .00000024  00000+0  29606-4 0  9994
2 48793  87.9090 139.1175 0001157  91.5013 268.6249 13.15546977 85936
ONEWEB-0226             
1 48793U 21045AC  23059.90972022  .00000128  00000+0  30689-3 0  9992
2 48793  87.9089 138.9966 0001166  91.1097 269.0167 13.15547924 86014
ONEWEB-0226             
1 48793U 21045AC  23060.89846756  .00000108  00000+0  25284-3 0  9999
2 48793  87.9088 138.8006 0001179  93.6516 266.4749 13.15547130 86144
ONEWEB-0226             
1 48793U 21045AC  23061.12663916  .00000200  00000+0  49718-3 0  9992
2 48793  87.9088 138.7556 0001164  95.9953 264.1310 13.15547565 87295
ONEWEB-0226             
1 48793U 21045AC  23061.58298292  .00000210  00000+0  52483-3 0  9997
2 48793  87.9088 138.6651 0001156  96.6211 263.5051 13.15548287 86236
ONEWEB-0226             
1 48793U 21045AC  23062.26750033  .00000088  00000+0  20083-3 0  9993
2 48793  87.9086 138.5293 0001157  97.3013 262.8249 13.15547460 86327
ONEWEB-0226             
1 48793U 21045AC  23062.26750033  .00000088  00000+0  20083-3 0  9993
2 48793  87.9086 138.5293 0001157  97.3013 262.8249 13.15547460 87441
